CTC1_L_00089016-03
1 50398U 23985Y   26070.40832176  .00000000  00000+0  00000-0 0  9997
2 50398  75.0000 180.0000 0000000   0.0000   0.0000 14.79785908    17
CTC1_L_00089016-04
1 50399U 25888DA  26070.40832176  .00000000  00000+0  00000-0 0  9992
2 50399  75.0000 180.0000 0000000   0.0000  90.0000 14.79785908    17
CTC1_L_00089017-01
1 50400U 24216YZ  26070.40832176  .00000000  00000+0  00000-0 0  9999
2 50400  75.0000 192.0000 0000000   0.0000 192.0000 14.79785908    16
CTC1_L_00089017-02
1 50401U 26060Q   26070.40832176  .00000000  00000+0  00000-0 0  9999
2 50401  75.0000 192.0000 0000000   0.0000 282.0000 14.79785908    17
CTC1_L_00089017-03
1 50402U 22194LJ  26070.40832176  .00000000  00000+0  00000-0 0  9994
2 50402  75.0000 192.0000 0000000   0.0000  12.0000 14.79785908    19
CTC1_L_00089017-04
1 50403U 24660IF  26070.40832176  .00000000  00000+0  00000-0 0  9995
2 50403  75.0000 192.0000 0000000   0.0000 102.0000 14.79785908    10
CTC1_L_00089018-01
1 50404U 26402EX  26070.40832176  .00000000  00000+0  00000-0 0  9992
2 50404  75.0000 204.0000 0000000   0.0000 204.0000 14.79785908    18
CTC1_L_00089018-02
1 50405U 23646CB  26070.40832176  .00000000  00000+0  00000-0 0  9990
2 50405  75.0000 204.0000 0000000   0.0000 294.0000 14.79785908    18
CTC1_L_00089018-03
1 50406U 26255YX  26070.40832176  .00000000  00000+0  00000-0 0  9990
2 50406  75.0000 204.0000 0000000   0.0000  24.0000 14.79785908    10
CTC1_L_00089018-04
1 50407U 24615NK  26070.40832176  .00000000  00000+0  00000-0 0  9999
2 50407  75.0000 204.0000 0000000   0.0000 114.0000 14.79785908    11
CTC1_L_00089019-01
1 50408U 23321XD  26070.40832176  .00000000  00000+0  00000-0 0  9993
2 50408  75.0000 216.0000 0000000   0.0000 216.0000 14.79785908    18
CTC1_L_00089019-02
1 50409U 26477CS  26070.40832176  .00000000  00000+0  00000-0 0  9999
2 50409  75.0000 216.0000 0000000   0.0000 306.0000 14.79785908    19
CTC1_L_00089019-03
1 50410U 23329HT  26070.40832176  .00000000  00000+0  00000-0 0  9994
2 50410  75.0000 216.0000 0000000   0.0000  36.0000 14.79785908    11
CTC1_L_00089019-04
1 50411U 24734BN  26070.40832176  .00000000  00000+0  00000-0 0  9996
2 50411  75.0000 216.0000 0000000   0.0000 126.0000 14.79785908    12
CTC1_L_00089020-01
1 50412U 25574R   26070.40832176  .00000000  00000+0  00000-0 0  9990
2 50412  75.0000 228.0000 0000000   0.0000 228.0000 14.79785908    19
CTC1_L_00089020-02
1 50413U 26705SC  26070.40832176  .00000000  00000+0  00000-0 0  9998
2 50413  75.0000 228.0000 0000000   0.0000 318.0000 14.79785908    10
CTC1_L_00089020-03
1 50414U 26414CP  26070.40832176  .00000000  00000+0  00000-0 0  9996
2 50414  75.0000 228.0000 0000000   0.0000  48.0000 14.79785908    11
CTC1_L_00089020-04
1 50415U 25729DW  26070.40832176  .00000000  00000+0  00000-0 0  9995
2 50415  75.0000 228.0000 0000000   0.0000 138.0000 14.79785908    12
CTC1_L_00089021-01
1 50416U 23987GR  26070.40832176  .00000000  00000+0  00000-0 0  9990
2 50416  75.0000 240.0000 0000000   0.0000 240.0000 14.79785908    11
CTC1_L_00089021-02
1 50417U 24882ZC  26070.40832176  .00000000  00000+0  00000-0 0  9996
2 50417  75.0000 240.0000 0000000   0.0000 330.0000 14.79785908    12
CTC1_L_00089021-03
1 50418U 23133SD  26070.40832176  .00000000  00000+0  00000-0 0  9995
2 50418  75.0000 240.0000 0000000   0.0000  60.0000 14.79785908    13
CTC1_L_00089021-04
1 50419U 23593PW  26070.40832176  .00000000  00000+0  00000-0 0  9996
2 50419  75.0000 240.0000 0000000   0.0000 150.0000 14.79785908    14
CTC1_L_00089022-01
1 50420U 22443ZZ  26070.40832176  .00000000  00000+0  00000-0 0  9991
2 50420  75.0000 252.0000 0000000   0.0000 252.0000 14.79785908    12
CTC1_L_00089022-02
1 50421U 24393SP  26070.40832176  .00000000  00000+0  00000-0 0  9998
2 50421  75.0000 252.0000 0000000   0.0000 342.0000 14.79785908    13
CTC1_L_00089022-03
1 50422U 22794KM  26070.40832176  .00000000  00000+0  00000-0 0  9992
2 50422  75.0000 252.0000 0000000   0.0000  72.0000 14.79785908    14
CTC1_L_00089022-04
1 50423U 25947RM  26070.40832176  .00000000  00000+0  00000-0 0  9996
2 50423  75.0000 252.0000 0000000   0.0000 162.0000 14.79785908    15
CTC1_L_00089023-01
1 50424U 26677PE  26070.40832176  .00000000  00000+0  00000-0 0  9998
2 50424  75.0000 264.0000 0000000   0.0000 264.0000 14.79785908    12
CTC1_L_00089023-02
1 50425U 22758IP  26070.40832176  .00000000  00000+0  00000-0 0  9995
2 50425  75.0000 264.0000 0000000   0.0000 354.0000 14.79785908    13
CTC1_L_00089023-03
1 50426U 25904RJ  26070.40832176  .00000000  00000+0  00000-0 0  9992
2 50426  75.0000 264.0000 0000000   0.0000  84.0000 14.79785908    14
CTC1_L_00089023-04
1 50427U 26801ZW  26070.40832176  .00000000  00000+0  00000-0 0  9990
2 50427  75.0000 264.0000 0000000   0.0000 174.0000 14.79785908    15
CTC1_L_00089024-01
1 50428U 26883IC  26070.40832176  .00000000  00000+0  00000-0 0  9991
2 50428  75.0000 276.0000 0000000   0.0000 276.0000 14.79785908    12
CTC1_L_00089024-02
1 50429U 26723DI  26070.40832176  .00000000  00000+0  00000-0 0  9995
2 50429  75.0000 276.0000 0000000   0.0000   6.0000 14.79785908    14
CTC1_L_00089024-03
1 50430U 26464VC  26070.40832176  .00000000  00000+0  00000-0 0  9999
2 50430  75.0000 276.0000 0000000   0.0000  96.0000 14.79785908    15
CTC1_L_00089024-04
1 50431U 25497NW  26070.40832176  .00000000  00000+0  00000-0 0  9995
2 50431  75.0000 276.0000 0000000   0.0000 186.0000 14.79785908    16
CTC1_L_00089025-01
1 50432U 26175BV  26070.40832176  .00000000  00000+0  00000-0 0  9990
2 50432  75.0000 288.0000 0000000   0.0000 288.0000 14.79785908    13
CTC1_L_00089025-02
1 50433U 23526YY  26070.40832176  .00000000  00000+0  00000-0 0  9998
2 50433  75.0000 288.0000 0000000   0.0000  18.0000 14.79785908    15
CTC1_L_00089025-03
1 50434U 26067KH  26070.40832176  .00000000  00000+0  00000-0 0  9992
2 50434  75.0000 288.0000 0000000   0.0000 108.0000 14.79785908    16
CTC1_L_00089025-04
1 50435U 23418ZG  26070.40832176  .00000000  00000+0  00000-0 0  9990
2 50435  75.0000 288.0000 0000000   0.0000 198.0000 14.79785908    16
CTC1_L_00089026-01
1 50436U 23177DY  26070.40832176  .00000000  00000+0  00000-0 0  9993
2 50436  75.0000 300.0000 0000000   0.0000 300.0000 14.79785908    17
CTC1_L_00089026-02
1 50437U 25909FY  26070.40832176  .00000000  00000+0  00000-0 0  9999
2 50437  75.0000 300.0000 0000000   0.0000  30.0000 14.79785908    18
CTC1_L_00089026-03
1 50438U 23932GP  26070.40832176  .00000000  00000+0  00000-0 0  9994
2 50438  75.0000 300.0000 0000000   0.0000 120.0000 14.79785908    19
CTC1_L_00089026-04
1 50439U 22365PS  26070.40832176  .00000000  00000+0  00000-0 0  9994
2 50439  75.0000 300.0000 0000000   0.0000 210.0000 14.79785908    10
CTC1_L_00089027-01
1 50440U 26483EI  26070.40832176  .00000000  00000+0  00000-0 0  9991
2 50440  75.0000 312.0000 0000000   0.0000 312.0000 14.79785908    18
CTC1_L_00089027-02
1 50441U 23871VI  26070.40832176  .00000000  00000+0  00000-0 0  9990
2 50441  75.0000 312.0000 0000000   0.0000  42.0000 14.79785908    19
CTC1_L_00089027-03
1 50442U 25699LB  26070.40832176  .00000000  00000+0  00000-0 0  9991
2 50442  75.0000 312.0000 0000000   0.0000 132.0000 14.79785908    10
CTC1_L_00089027-04
1 50443U 22576DM  26070.40832176  .00000000  00000+0  00000-0 0  9993
2 50443  75.0000 312.0000 0000000   0.0000 222.0000 14.79785908    11
CTC1_L_00089028-01
1 50444U 25381DE  26070.40832176  .00000000  00000+0  00000-0 0  9991
2 50444  75.0000 324.0000 0000000   0.0000 324.0000 14.79785908    18
CTC1_L_00089028-02
1 50445U 25209UO  26070.40832176  .00000000  00000+0  00000-0 0  9991
2 50445  75.0000 324.0000 0000000   0.0000  54.0000 14.79785908    19
CTC1_L_00089028-03
1 50446U 25627AR  26070.40832176  .00000000  00000+0  00000-0 0  9996
2 50446  75.0000 324.0000 0000000   0.0000 144.0000 14.79785908    10
CTC1_L_00089028-04
1 50447U 26428FA  26070.40832176  .00000000  00000+0  00000-0 0  9997
2 50447  75.0000 324.0000 0000000   0.0000 234.0000 14.79785908    11
CTC1_L_00089029-01
1 50448U 23065RN  26070.40832176  .00000000  00000+0  00000-0 0  9992
2 50448  75.0000 336.0000 0000000   0.0000 336.0000 14.79785908    18
CTC1_L_00089029-02
1 50449U 22958EV  26070.40832176  .00000000  00000+0  00000-0 0  9993
2 50449  75.0000 336.0000 0000000   0.0000  66.0000 14.79785908    19
CTC1_L_00089029-03
1 50450U 22700TG  26070.40832176  .00000000  00000+0  00000-0 0  9990
2 50450  75.0000 336.0000 0000000   0.0000 156.0000 14.79785908    11
CTC1_L_00089029-04
1 50451U 26074K   26070.40832176  .00000000  00000+0  00000-0 0  9999
2 50451  75.0000 336.0000 0000000   0.0000 246.0000 14.79785908    12
CTC1_L_00089030-01
1 50452U 24812UQ  26070.40832176  .00000000  00000+0  00000-0 0  9998
2 50452  75.0000 348.0000 0000000   0.0000 348.0000 14.79785908    19
CTC1_L_00089030-02
1 50453U 26285OV  26070.40832176  .00000000  00000+0  00000-0 0  9995
2 50453  75.0000 348.0000 0000000   0.0000  78.0000 14.79785908    10
CTC1_L_00089030-03
1 50454U 22471YM  26070.40832176  .00000000  00000+0  00000-0 0  9999
2 50454  75.0000 348.0000 0000000   0.0000 168.0000 14.79785908    11
CTC1_L_00089030-04
1 50455U 22648OF  26070.40832176  .00000000  00000+0  00000-0 0  9996
2 50455  75.0000 348.0000 0000000   0.0000 258.0000 14.79785908    12
